start=new Date('2022-02-14T00:00:00.000Z').valueOf();
sats=[{"DECAY_DATE":null,"SEMIMAJOR_AXIS":"6897.241","ELEMENT_SET_NO":"999","RA_OF_ASC_NODE":"46.1379","INCLINATION":"53.2172","TIME_SYSTEM":"UTC","CLASSIFICATION_TYPE":"U","GP_ID":"195895243","ECCENTRICITY":"0.00016440","BSTAR":"-0.03704700000000","EPOCH":"2022-02-13T14:00:01.000224","TLE_LINE1":"1 49445U 21104AP  22044.58334491 -.00667109  00000-0 -37047-1 0  9996","MEAN_ELEMENT_THEORY":"SGP4","LAUNCH_DATE":"2021-11-13","CENTER_NAME":"EARTH","RCS_SIZE":"LARGE","COUNTRY_CODE":"US","MEAN_MOTION":"15.15617743","NORAD_CAT_ID":"49445","FILE":"3299685","SITE":"AFETR","OBJECT_ID":"2021-104AP","PERIOD":"95.011","OBJECT_NAME":"STARLINK-3122","APOAPSIS":"520.240","OBJECT_TYPE":"PAYLOAD","MEAN_MOTION_DOT":"-0.00667109","MEAN_MOTION_DDOT":"0.0000000000000","MEAN_ANOMALY":"203.7303","ARG_OF_PERICENTER":"49.9179","EPHEMERIS_TYPE":"0","TLE_LINE2":"2 49445  53.2172  46.1379 0001644  49.9179 203.7303 15.15617743  3643","REF_FRAME":"TEME","PERIAPSIS":"517.972","REV_AT_EPOCH":"364"},{"DECAY_DATE":null,"INCLINATION":"53.2174","RA_OF_ASC_NODE":"37.8423","SEMIMAJOR_AXIS":"6807.906","ELEMENT_SET_NO":"999","CLASSIFICATION_TYPE":"U","TIME_SYSTEM":"UTC","EPOCH":"2022-02-13T22:00:00.999936","BSTAR":"-0.01460400000000","ECCENTRICITY":"0.00016660","GP_ID":"195901776","CENTER_NAME":"EARTH","LAUNCH_DATE":"2021-11-13","MEAN_ELEMENT_THEORY":"SGP4","TLE_LINE1":"1 49446U 21104AQ  22044.91667824 -.00655792  00000-0 -14604-1 0  9992","RCS_SIZE":"LARGE","FILE":"3299867","COUNTRY_CODE":"US","MEAN_MOTION":"15.45547792","NORAD_CAT_ID":"49446","PERIOD":"93.171","OBJECT_ID":"2021-104AQ","SITE":"AFETR","OBJECT_NAME":"STARLINK-3099","APOAPSIS":"430.905","OBJECT_TYPE":"PAYLOAD","MEAN_ANOMALY":"85.0863","MEAN_MOTION_DDOT":"0.0000000000000","MEAN_MOTION_DOT":"-0.00655792","TLE_LINE2":"2 49446  53.2174  37.8423 0001666  39.4548  85.0863 15.45547792 15791","EPHEMERIS_TYPE":"0","ARG_OF_PERICENTER":"39.4548","REF_FRAME":"TEME","PERIAPSIS":"428.637","REV_AT_EPOCH":"1579"},{"GP_ID":"195896232","ECCENTRICITY":"0.00015850","BSTAR":"-0.03687900000000","EPOCH":"2022-02-13T14:00:01.000224","TIME_SYSTEM":"UTC","CLASSIFICATION_TYPE":"U","RA_OF_ASC_NODE":"46.1378","SEMIMAJOR_AXIS":"6896.557","ELEMENT_SET_NO":"999","INCLINATION":"53.2172","DECAY_DATE":null,"SITE":"AFETR","OBJECT_ID":"2021-104AR","PERIOD":"94.997","COUNTRY_CODE":"US","NORAD_CAT_ID":"49447","MEAN_MOTION":"15.15843013","FILE":"3299685","RCS_SIZE":"LARGE","MEAN_ELEMENT_THEORY":"SGP4","TLE_LINE1":"1 49447U 21104AR  22044.58334491 -.00668286  00000-0 -36879-1 0  9997","CENTER_NAME":"EARTH","LAUNCH_DATE":"2021-11-13","MEAN_MOTION_DDOT":"0.0000000000000","MEAN_MOTION_DOT":"-0.00668286","MEAN_ANOMALY":"239.5265","OBJECT_TYPE":"PAYLOAD","APOAPSIS":"519.516","OBJECT_NAME":"STARLINK-3115","PERIAPSIS":"517.329","REV_AT_EPOCH":"364","REF_FRAME":"TEME","ARG_OF_PERICENTER":"50.1410","EPHEMERIS_TYPE":"0","TLE_LINE2":"2 49447  53.2172  46.1378 0001585  50.1410 239.5265 15.15843013  3645"},{"SEMIMAJOR_AXIS":"6897.591","RA_OF_ASC_NODE":"46.1376","ELEMENT_SET_NO":"999","INCLINATION":"53.2172","DECAY_DATE":null,"ECCENTRICITY":"0.00017010","GP_ID":"195895493","BSTAR":"-0.03711800000000","EPOCH":"2022-02-13T14:00:01.000224","TIME_SYSTEM":"UTC","CLASSIFICATION_TYPE":"U","RCS_SIZE":"LARGE","MEAN_ELEMENT_THEORY":"SGP4","TLE_LINE1":"1 49448U 21104AS  22044.58334491 -.00666249  00000-0 -37118-1 0  9992","CENTER_NAME":"EARTH","LAUNCH_DATE":"2021-11-13","SITE":"AFETR","OBJECT_ID":"2021-104AS","PERIOD":"95.018","MEAN_MOTION":"15.15502154","COUNTRY_CODE":"US","NORAD_CAT_ID":"49448","FILE":"3299685","APOAPSIS":"520.630","OBJECT_NAME":"STARLINK-3097","MEAN_MOTION_DDOT":"0.0000000000000","MEAN_ANOMALY":"187.2366","MEAN_MOTION_DOT":"-0.00666249","OBJECT_TYPE":"PAYLOAD","REF_FRAME":"TEME","ARG_OF_PERICENTER":"48.4017","EPHEMERIS_TYPE":"0","TLE_LINE2":"2 49448  53.2172  46.1376 0001701  48.4017 187.2366 15.15502154  3646","PERIAPSIS":"518.283","REV_AT_EPOCH":"364"},{"CENTER_NAME":"EARTH","LAUNCH_DATE":"2021-11-13","MEAN_ELEMENT_THEORY":"SGP4","TLE_LINE1":"1 49449U 21104AT  22044.91667824 -.00662092  00000-0 -36886-1 0  9992","RCS_SIZE":"LARGE","FILE":"3299867","NORAD_CAT_ID":"49449","COUNTRY_CODE":"US","MEAN_MOTION":"15.15487812","PERIOD":"95.019","OBJECT_ID":"2021-104AT","SITE":"AFETR","DECAY_DATE":null,"INCLINATION":"53.2173","ELEMENT_SET_NO":"999","SEMIMAJOR_AXIS":"6897.635","RA_OF_ASC_NODE":"44.6242","CLASSIFICATION_TYPE":"U","TIME_SYSTEM":"UTC","EPOCH":"2022-02-13T22:00:00.999936","BSTAR":"-0.03688600000000","ECCENTRICITY":"0.00017250","GP_ID":"195902042","TLE_LINE2":"2 49449  53.2173  44.6242 0001725  40.3472 287.0941 15.15487812 15706","EPHEMERIS_TYPE":"0","ARG_OF_PERICENTER":"40.3472","REF_FRAME":"TEME","PERIAPSIS":"518.310","REV_AT_EPOCH":"1570","OBJECT_NAME":"STARLINK-3137","APOAPSIS":"520.690","OBJECT_TYPE":"PAYLOAD","MEAN_ANOMALY":"287.0941","MEAN_MOTION_DDOT":"0.0000000000000","MEAN_MOTION_DOT":"-0.00662092"},{"PERIOD":"95.033","OBJECT_ID":"2021-104AU","SITE":"AFETR","FILE":"3299867","COUNTRY_CODE":"US","NORAD_CAT_ID":"49450","MEAN_MOTION":"15.15258292","RCS_SIZE":"LARGE","CENTER_NAME":"EARTH","LAUNCH_DATE":"2021-11-13","MEAN_ELEMENT_THEORY":"SGP4","TLE_LINE1":"1 49450U 21104AU  22044.91667824 -.00663472  00000-0 -37210-1 0  9999","EPOCH":"2022-02-13T22:00:00.999936","BSTAR":"-0.03721000000000","GP_ID":"195901762","ECCENTRICITY":"0.00018450","CLASSIFICATION_TYPE":"U","TIME_SYSTEM":"UTC","INCLINATION":"53.2173","RA_OF_ASC_NODE":"44.6240","SEMIMAJOR_AXIS":"6898.332","ELEMENT_SET_NO":"999","DECAY_DATE":null,"REV_AT_EPOCH":"1569","PERIAPSIS":"518.924","REF_FRAME":"TEME","TLE_LINE2":"2 49450  53.2173  44.6240 0001845  39.1517 252.1601 15.15258292 15697","EPHEMERIS_TYPE":"0","ARG_OF_PERICENTER":"39.1517","MEAN_MOTION_DOT":"-0.00663472","MEAN_MOTION_DDOT":"0.0000000000000","MEAN_ANOMALY":"252.1601","OBJECT_TYPE":"PAYLOAD","APOAPSIS":"521.469","OBJECT_NAME":"STARLINK-3127"},{"REF_FRAME":"TEME","EPHEMERIS_TYPE":"0","ARG_OF_PERICENTER":"48.8786","TLE_LINE2":"2 49451  53.2172  46.1377 0001520  48.8786 276.5736 15.16073482  3648","REV_AT_EPOCH":"364","PERIAPSIS":"516.675","APOAPSIS":"518.772","OBJECT_NAME":"STARLINK-3125","MEAN_MOTION_DDOT":"0.0000000000000","MEAN_ANOMALY":"276.5736","MEAN_MOTION_DOT":"-0.00668575","OBJECT_TYPE":"PAYLOAD","RCS_SIZE":"LARGE","MEAN_ELEMENT_THEORY":"SGP4","TLE_LINE1":"1 49451U 21104AV  22044.58334491 -.00668575  00000-0 -36654-1 0  9994","CENTER_NAME":"EARTH","LAUNCH_DATE":"2021-11-13","OBJECT_ID":"2021-104AV","SITE":"AFETR","PERIOD":"94.982","NORAD_CAT_ID":"49451","COUNTRY_CODE":"US","MEAN_MOTION":"15.16073482","FILE":"3299685","SEMIMAJOR_AXIS":"6895.858","ELEMENT_SET_NO":"999","RA_OF_ASC_NODE":"46.1377","INCLINATION":"53.2172","DECAY_DATE":null,"ECCENTRICITY":"0.00015200","GP_ID":"195896732","EPOCH":"2022-02-13T14:00:01.000224","BSTAR":"-0.03665400000000","CLASSIFICATION_TYPE":"U","TIME_SYSTEM":"UTC"},{"REF_FRAME":"TEME","TLE_LINE2":"2 49452  53.2174  44.9986 0001548  47.1894 272.3087 15.16039906 15699","ARG_OF_PERICENTER":"47.1894","EPHEMERIS_TYPE":"0","REV_AT_EPOCH":"1569","PERIAPSIS":"516.758","APOAPSIS":"518.893","OBJECT_NAME":"STARLINK-3150","MEAN_ANOMALY":"272.3087","MEAN_MOTION_DDOT":"0.0000000000000","MEAN_MOTION_DOT":"-0.00660437","OBJECT_TYPE":"PAYLOAD","RCS_SIZE":"LARGE","CENTER_NAME":"EARTH","LAUNCH_DATE":"2021-11-13","MEAN_ELEMENT_THEORY":"SGP4","TLE_LINE1":"1 49452U 21104AW  22044.83334491 -.00660437  00000-0 -36213-1 0  9993","PERIOD":"94.984","SITE":"AFETR","OBJECT_ID":"2021-104AW","FILE":"3299815","COUNTRY_CODE":"US","NORAD_CAT_ID":"49452","MEAN_MOTION":"15.16039906","INCLINATION":"53.2174","SEMIMAJOR_AXIS":"6895.960","RA_OF_ASC_NODE":"44.9986","ELEMENT_SET_NO":"999","DECAY_DATE":null,"BSTAR":"-0.03621300000000","EPOCH":"2022-02-13T20:00:01.000224","GP_ID":"195901054","ECCENTRICITY":"0.00015480","TIME_SYSTEM":"UTC","CLASSIFICATION_TYPE":"U"},{"BSTAR":"-0.03637700000000","EPOCH":"2022-02-13T14:00:01.000224","ECCENTRICITY":"0.00015920","GP_ID":"195895244","TIME_SYSTEM":"UTC","CLASSIFICATION_TYPE":"U","INCLINATION":"53.2173","ELEMENT_SET_NO":"999","SEMIMAJOR_AXIS":"6895.178","RA_OF_ASC_NODE":"46.1371","DECAY_DATE":null,"PERIOD":"94.968","SITE":"AFETR","OBJECT_ID":"2021-104AX","FILE":"3299685","COUNTRY_CODE":"US","MEAN_MOTION":"15.16297778","NORAD_CAT_ID":"49453","RCS_SIZE":"LARGE","LAUNCH_DATE":"2021-11-13","CENTER_NAME":"EARTH","TLE_LINE1":"1 49453U 21104AX  22044.58334491 -.00667854  00000-0 -36377-1 0  9997","MEAN_ELEMENT_THEORY":"SGP4","MEAN_MOTION_DDOT":"0.0000000000000","MEAN_ANOMALY":"317.5664","MEAN_MOTION_DOT":"-0.00667854","OBJECT_TYPE":"PAYLOAD","APOAPSIS":"518.141","OBJECT_NAME":"STARLINK-3129","PERIAPSIS":"515.946","REV_AT_EPOCH":"364","REF_FRAME":"TEME","TLE_LINE2":"2 49453  53.2173  46.1371 0001592  43.6430 317.5664 15.16297778  3645","ARG_OF_PERICENTER":"43.6430","EPHEMERIS_TYPE":"0"},{"PERIOD":"94.975","OBJECT_ID":"2021-104AY","SITE":"AFETR","FILE":"3299685","COUNTRY_CODE":"US","MEAN_MOTION":"15.16188569","NORAD_CAT_ID":"49454","RCS_SIZE":"LARGE","CENTER_NAME":"EARTH","LAUNCH_DATE":"2021-11-13","TLE_LINE1":"1 49454U 21104AY  22044.58334491 -.00668440  00000-0 -36525-1 0  9995","MEAN_ELEMENT_THEORY":"SGP4","EPOCH":"2022-02-13T14:00:01.000224","BSTAR":"-0.03652500000000","GP_ID":"195896482","ECCENTRICITY":"0.00016230","CLASSIFICATION_TYPE":"U","TIME_SYSTEM":"UTC","INCLINATION":"53.2173","SEMIMAJOR_AXIS":"6895.510","RA_OF_ASC_NODE":"46.1374","ELEMENT_SET_NO":"999","DECAY_DATE":null,"PERIAPSIS":"516.255","REV_AT_EPOCH":"364","REF_FRAME":"TEME","TLE_LINE2":"2 49454  53.2173  46.1374 0001623  43.3117 299.9819 15.16188569  3645","EPHEMERIS_TYPE":"0","ARG_OF_PERICENTER":"43.3117","MEAN_MOTION_DOT":"-0.00668440","MEAN_MOTION_DDOT":"0.0000000000000","MEAN_ANOMALY":"299.9819","OBJECT_TYPE":"PAYLOAD","APOAPSIS":"518.494","OBJECT_NAME":"STARLINK-3160"}];
